{"type": "FeatureCollection", "features": [ {"type": "Feature", "properties": {"norad_id": 31287, "name": "FENGYUN 1C DEB", "group": "fengyun-1c-debris", "lat": -70.27057241312625, "lon": -149.62167759917372, "alt_km": 817.9193395467382, "timestamp": "2025-12-26T21:25:53.291925+00:00", "meta": {"OBJECT_NAME": "FENGYUN 1C DEB", "OBJECT_ID": "1999-025BNV", "EPOCH": "2025-12-17T09:14:55.199040", "MEAN_MOTION": 14.280549, "ECCENTRICITY": 0.0027206, "INCLINATION": 99.41, "RA_OF_ASC_NODE": 47.6846, "ARG_OF_PERICENTER": 50.1324, "MEAN_ANOMALY": 310.2241, "EPHEMERIS_TYPE": 0, "CLASSIFICATION_TYPE": "U", "NORAD_CAT_ID": 31287, "ELEMENT_SET_NO": 999, "REV_AT_EPOCH": 96752, "BSTAR": 0.0011667317, "MEAN_MOTION_DOT": 2.86e-05, "MEAN_MOTION_DDOT": 0}, "tle": {"line1": "1 31287U 99025BNV 25351.38536110  .00002860  00000+0  11667-2 0  9997", "line2": "2 31287  99.4100  47.6846 0027206  50.1324 310.2241 14.28054900967528"}}, "geometry": {"type": "Point", "coordinates": [-149.62167759917372, -70.27057241312625]}}, {"type": "Feature", "properties": {"norad_id": 31288, "name": "FENGYUN 1C DEB", "group": "fengyun-1c-debris", "lat": -81.12567365610516, "lon": -119.02963026490882, "alt_km": 567.1384550876182, "timestamp": "2025-12-26T21:25:53.291936+00:00", "meta": {"OBJECT_NAME": "FENGYUN 1C DEB", "OBJECT_ID": "1999-025BNW", "EPOCH": "2025-12-25T22:26:34.632384", "MEAN_MOTION": 14.97229146, "ECCENTRICITY": 0.0022775, "INCLINATION": 98.7454, "RA_OF_ASC_NODE": 159.527, "ARG_OF_PERICENTER": 259.3147, "MEAN_ANOMALY": 252.1419, "EPHEMERIS_TYPE": 0, "CLASSIFICATION_TYPE": "U", "NORAD_CAT_ID": 31288, "ELEMENT_SET_NO": 999, "REV_AT_EPOCH": 97754, "BSTAR": 0.0055631, "MEAN_MOTION_DOT": 0.00065231, "MEAN_MOTION_DDOT": 0}, "tle": {"line1": "1 31288U 99025BNW 25359.93512306  .00065231  00000+0  55631-2 0  9998", "line2": "2 31288  98.7454 159.5270 0022775 259.3147 252.1419 14.97229146977545"}}, "geometry": {"type": "Point", "coordinates": [-119.02963026490882, -81.12567365610516]}}, {"type": "Feature", "properties": {"norad_id": 31293, "name": "FENGYUN 1C DEB", "group": "fengyun-1c-debris", "lat": 81.56495775128697, "lon": -84.18372829448563, "alt_km": 815.0609288290807, "timestamp": "2025-12-26T21:25:53.291946+00:00", "meta": {"OBJECT_NAME": "FENGYUN 1C DEB", "OBJECT_ID": "1999-025BPB", "EPOCH": "2025-12-22T06:13:51.554208", "MEAN_MOTION": 14.30816344, "ECCENTRICITY": 0.01257922, "INCLINATION": 98.4224, "RA_OF_ASC_NODE": 3.727, "ARG_OF_PERICENTER": 216.5399, "MEAN_ANOMALY": 142.7154, "EPHEMERIS_TYPE": 0, "CLASSIFICATION_TYPE": "U", "NORAD_CAT_ID": 31293, "ELEMENT_SET_NO": 999, "REV_AT_EPOCH": 65380, "BSTAR": 6.4145544e-05, "MEAN_MOTION_DOT": 1.39e-06, "MEAN_MOTION_DDOT": 0}, "tle": {"line1": "1 31293U 99025BPB 25356.25962447  .00000139  00000+0  64146-4 0  9990", "line2": "2 31293  98.4224   3.7270 0125792 216.5399 142.7154 14.30816344653809"}}, "geometry": {"type": "Point", "coordinates": [-84.18372829448563, 81.56495775128697]}}, {"type": "Feature", "properties": {"norad_id": 31294, "name": "FENGYUN 1C DEB", "group": "fengyun-1c-debris", "lat": 81.15516854011996, "lon": -79.1183193611567, "alt_km": 893.8508112503077, "timestamp": "2025-12-26T21:25:53.291956+00:00", "meta": {"OBJECT_NAME": "FENGYUN 1C DEB", "OBJECT_ID": "1999-025BPC", "EPOCH": "2025-12-25T22:57:37.291104", "MEAN_MOTION": 14.15338572, "ECCENTRICITY": 0.0099077, "INCLINATION": 98.5439, "RA_OF_ASC_NODE": 355.0165, "ARG_OF_PERICENTER": 302.8872, "MEAN_ANOMALY": 56.2798, "EPHEMERIS_TYPE": 0, "CLASSIFICATION_TYPE": "U", "NORAD_CAT_ID": 31294, "ELEMENT_SET_NO": 999, "REV_AT_EPOCH": 97040, "BSTAR": 0.00048177, "MEAN_MOTION_DOT": 9.41e-06, "MEAN_MOTION_DDOT": 0}, "tle": {"line1": "1 31294U 99025BPC 25359.95668161  .00000941  00000+0  48177-3 0  9993", "line2": "2 31294  98.5439 355.0165 0099077 302.8872  56.2798 14.15338572970402"}}, "geometry": {"type": "Point", "coordinates": [-79.1183193611567, 81.15516854011996]}}, {"type": "Feature", "properties": {"norad_id": 31295, "name": "FENGYUN 1C DEB", "group": "fengyun-1c-debris", "lat": 7.875330697536246, "lon": 5.644199914344443, "alt_km": 862.7914795151901, "timestamp": "2025-12-26T21:25:53.291966+00:00", "meta": {"OBJECT_NAME": "FENGYUN 1C DEB", "OBJECT_ID": "1999-025BPD", "EPOCH": "2025-12-25T11:56:32.906976", "MEAN_MOTION": 13.96834303, "ECCENTRICITY": 0.0077253, "INCLINATION": 98.3163, "RA_OF_ASC_NODE": 183.2226, "ARG_OF_PERICENTER": 215.0084, "MEAN_ANOMALY": 144.5989, "EPHEMERIS_TYPE": 0, "CLASSIFICATION_TYPE": "U", "NORAD_CAT_ID": 31295, "ELEMENT_SET_NO": 999, "REV_AT_EPOCH": 95681, "BSTAR": 0.00010445, "MEAN_MOTION_DOT": 1.11e-06, "MEAN_MOTION_DDOT": 0}, "tle": {"line1": "1 31295U 99025BPD 25359.49760309  .00000111  00000+0  10445-3 0  9996", "line2": "2 31295  98.3163 183.2226 0077253 215.0084 144.5989 13.96834303956819"}}, "geometry": {"type": "Point", "coordinates": [5.644199914344443, 7.875330697536246]}}, {"type": "Feature", "properties": {"norad_id": 31296, "name": "FENGYUN 1C DEB", "group": "fengyun-1c-debris", "lat": -11.583485123074624, "lon": 95.52204027913623, "alt_km": 645.8554668998067, "timestamp": "2025-12-26T21:25:53.291977+00:00", "meta": {"OBJECT_NAME": "FENGYUN 1C DEB", "OBJECT_ID": "1999-025BPE", "EPOCH": "2025-12-26T12:24:30.673152", "MEAN_MOTION": 14.72154972, "ECCENTRICITY": 0.00201915, "INCLINATION": 99.0672, "RA_OF_ASC_NODE": 276.979, "ARG_OF_PERICENTER": 165.4293, "MEAN_ANOMALY": 194.7497, "EPHEMERIS_TYPE": 0, "CLASSIFICATION_TYPE": "U", "NORAD_CAT_ID": 31296, "ELEMENT_SET_NO": 999, "REV_AT_EPOCH": 97552, "BSTAR": 0.0047042884, "MEAN_MOTION_DOT": 0.00029793, "MEAN_MOTION_DDOT": 0}, "tle": {"line1": "1 31296U 99025BPE 25360.51702168  .00029793  00000+0  47043-2 0  9991", "line2": "2 31296  99.0672 276.9790 0020191 165.4293 194.7497 14.72154972975520"}}, "geometry": {"type": "Point", "coordinates": [95.52204027913623, -11.583485123074624]}}, {"type": "Feature", "properties": {"norad_id": 31297, "name": "FENGYUN 1C DEB", "group": "fengyun-1c-debris", "lat": -77.49823045133041, "lon": -175.9915705787296, "alt_km": 803.3247796752858, "timestamp": "2025-12-26T21:25:53.291987+00:00", "meta": {"OBJECT_NAME": "FENGYUN 1C DEB", "OBJECT_ID": "1999-025BPF", "EPOCH": "2025-12-26T08:45:46.608192", "MEAN_MOTION": 14.57125432, "ECCENTRICITY": 0.01396904, "INCLINATION": 98.9351, "RA_OF_ASC_NODE": 138.2438, "ARG_OF_PERICENTER": 81.6818, "MEAN_ANOMALY": 310.2898, "EPHEMERIS_TYPE": 0, "CLASSIFICATION_TYPE": "U", "NORAD_CAT_ID": 31297, "ELEMENT_SET_NO": 999, "REV_AT_EPOCH": 99514, "BSTAR": 0.00030871103, "MEAN_MOTION_DOT": 1.531e-05, "MEAN_MOTION_DDOT": 0}, "tle": {"line1": "1 31297U 99025BPF 25360.36512278  .00001531  00000+0  30871-3 0  9998", "line2": "2 31297  98.9351 138.2438 0139690  81.6818 310.2898 14.57125432995141"}}, "geometry": {"type": "Point", "coordinates": [-175.9915705787296, -77.49823045133041]}}, {"type": "Feature", "properties": {"norad_id": 31300, "name": "FENGYUN 1C DEB", "group": "fengyun-1c-debris", "lat": -65.32850010773616, "lon": -120.25802724863534, "alt_km": 877.9362272849521, "timestamp": "2025-12-26T21:25:53.291997+00:00", "meta": {"OBJECT_NAME": "FENGYUN 1C DEB", "OBJECT_ID": "1999-025BPJ", "EPOCH": "2025-12-26T11:51:57.398112", "MEAN_MOTION": 14.15187293, "ECCENTRICITY": 0.00594805, "INCLINATION": 99.5411, "RA_OF_ASC_NODE": 80.794, "ARG_OF_PERICENTER": 21.1038, "MEAN_ANOMALY": 357.0476, "EPHEMERIS_TYPE": 0, "CLASSIFICATION_TYPE": "U", "NORAD_CAT_ID": 31300, "ELEMENT_SET_NO": 999, "REV_AT_EPOCH": 96369, "BSTAR": 0.0011552979, "MEAN_MOTION_DOT": 2.233e-05, "MEAN_MOTION_DDOT": 0}, "tle": {"line1": "1 31300U 99025BPJ 25360.49441433  .00002233  00000+0  11553-2 0  9996", "line2": "2 31300  99.5411  80.7940 0059480  21.1038 357.0476 14.15187293963693"}}, "geometry": {"type": "Point", "coordinates": [-120.25802724863534, -65.32850010773616]}}, {"type": "Feature", "properties": {"norad_id": 31302, "name": "FENGYUN 1C DEB", "group": "fengyun-1c-debris", "lat": -1.8253919198341049, "lon": 44.314443888752265, "alt_km": 784.5333682870323, "timestamp": "2025-12-26T21:25:53.292007+00:00", "meta": {"OBJECT_NAME": "FENGYUN 1C DEB", "OBJECT_ID": "1999-025BPL", "EPOCH": "2025-12-19T15:12:58.171104", "MEAN_MOTION": 14.27574345, "ECCENTRICITY": 0.002659, "INCLINATION": 99.4129, "RA_OF_ASC_NODE": 36.2, "ARG_OF_PERICENTER": 35.1141, "MEAN_ANOMALY": 117.7071, "EPHEMERIS_TYPE": 0, "CLASSIFICATION_TYPE": "U", "NORAD_CAT_ID": 31302, "ELEMENT_SET_NO": 999, "REV_AT_EPOCH": 96456, "BSTAR": 0.00096178, "MEAN_MOTION_DOT": 2.325e-05, "MEAN_MOTION_DDOT": 0}, "tle": {"line1": "1 31302U 99025BPL 25353.63400661  .00002325  00000+0  96178-3 0  9993", "line2": "2 31302  99.4129  36.2000 0026590  35.1141 117.7071 14.27574345964569"}}, "geometry": {"type": "Point", "coordinates": [44.314443888752265, -1.8253919198341049]}}, {"type": "Feature", "properties": {"norad_id": 31303, "name": "FENGYUN 1C DEB", "group": "fengyun-1c-debris", "lat": -34.96346696330207, "lon": 22.806629927564913, "alt_km": 869.5162538863578, "timestamp": "2025-12-26T21:25:53.292017+00:00", "meta": {"OBJECT_NAME": "FENGYUN 1C DEB", "OBJECT_ID": "1999-025BPM", "EPOCH": "2025-12-24T11:44:12.668064", "MEAN_MOTION": 14.11029713, "ECCENTRICITY": 0.00120246, "INCLINATION": 98.7039, "RA_OF_ASC_NODE": 14.3281, "ARG_OF_PERICENTER": 120.7767, "MEAN_ANOMALY": 239.459, "EPHEMERIS_TYPE": 0, "CLASSIFICATION_TYPE": "U", "NORAD_CAT_ID": 31303, "ELEMENT_SET_NO": 999, "REV_AT_EPOCH": 96484, "BSTAR": 0.00012179217, "MEAN_MOTION_DOT": 1.77e-06, "MEAN_MOTION_DDOT": 0}, "tle": {"line1": "1 31303U 99025BPM 25358.48903551  .00000177  00000+0  12179-3 0  9990", "line2": "2 31303  98.7039  14.3281 0012024 120.7767 239.4590 14.11029713964848"}}, "geometry": {"type": "Point", "coordinates": [22.806629927564913, -34.96346696330207]}}]}